KUIPER-00008            
1 63724U 25088A   25196.93556866 -.00212543  00000+0 -12474-1 0  9993
2 63724  51.8824  86.9762 0012919  30.0231 330.1484 15.12202362 12539
KUIPER-00009            
1 63725U 25088B   25196.96728436 -.00230423  00000+0 -84689-2 0  9996
2 63725  51.8661  82.1078 0011053  54.8215 305.3801 15.28287883 12604
KUIPER-00010            
1 63726U 25088C   25196.94900770  .00010339  00000+0  30312-3 0  9993
2 63726  51.8642  82.0119 0009938  39.4823 320.6885 15.35733260 12225
KUIPER-00011            
1 63727U 25088D   25196.90764628  .00009056  00000+0  27026-3 0  9992
2 63727  51.8572  82.4295 0011774  46.6988 313.4978 15.35324332 12353
KUIPER-00012            
1 63728U 25088E   25196.97147308  .00009426  00000+0  28045-3 0  9993
2 63728  51.8561  82.0975 0011726  48.0305 312.1678 15.35365299 12315
KUIPER-00013            
1 63729U 25088F   25196.94510517 -.00271875  00000+0 -10488-1 0  9998
2 63729  51.8693  82.6884 0008405  34.8904 325.2628 15.26921755 12400
KUIPER-00014            
1 63730U 25088G   25196.91668981 -.00013056  00000+0 -49874-3 0  9994
2 63730  51.8674  83.6486 0011507  38.3780 136.1613 15.25229399  4529
KUIPER-00015            
1 63731U 25088H   25196.95369150 -.00121730  00000+0 -85472-2 0  9997
2 63731  51.8802  90.0441 0011032  28.3172 331.8399 15.05200905 12572
