<?xml version="1.0" encoding="UTF-8"?>
<ndm xmlns:xsi="http://www.w3.org/2001/XMLSchema-instance" xsi:noNamespaceSchemaLocation="https://sanaregistry.org/r/ndmxml_unqualified/ndmxml-2.0.0-master-2.0.xsd">
<omm id="CCSDS_OMM_VERS" version="2.0">
<header><CREATION_DATE/><ORIGINATOR/></header><body><segment><metadata><OBJECT_NAME>KUIPER-00008</OBJECT_NAME><OBJECT_ID>2025-088A</OBJECT_ID><CENTER_NAME>EARTH</CENTER_NAME><REF_FRAME>TEME</REF_FRAME><TIME_SYSTEM>UTC</TIME_SYSTEM><MEAN_ELEMENT_THEORY>SGP4</MEAN_ELEMENT_THEORY></metadata><data><meanElements><EPOCH>2025-07-15T22:27:13.132224</EPOCH><MEAN_MOTION>15.12202362</MEAN_MOTION><ECCENTRICITY>.0012919</ECCENTRICITY><INCLINATION>51.8824</INCLINATION><RA_OF_ASC_NODE>86.9762</RA_OF_ASC_NODE><ARG_OF_PERICENTER>30.0231</ARG_OF_PERICENTER><MEAN_ANOMALY>330.1484</MEAN_ANOMALY></meanElements><tleParameters><EPHEMERIS_TYPE>0</EPHEMERIS_TYPE><CLASSIFICATION_TYPE>U</CLASSIFICATION_TYPE><NORAD_CAT_ID>63724</NORAD_CAT_ID><ELEMENT_SET_NO>999</ELEMENT_SET_NO><REV_AT_EPOCH>1253</REV_AT_EPOCH><BSTAR>-.12474E-1</BSTAR><MEAN_MOTION_DOT>-.212543E-2</MEAN_MOTION_DOT><MEAN_MOTION_DDOT>0</MEAN_MOTION_DDOT></tleParameters></data></segment></body></omm>
<omm id="CCSDS_OMM_VERS" version="2.0">
<header><CREATION_DATE/><ORIGINATOR/></header><body><segment><metadata><OBJECT_NAME>KUIPER-00009</OBJECT_NAME><OBJECT_ID>2025-088B</OBJECT_ID><CENTER_NAME>EARTH</CENTER_NAME><REF_FRAME>TEME</REF_FRAME><TIME_SYSTEM>UTC</TIME_SYSTEM><MEAN_ELEMENT_THEORY>SGP4</MEAN_ELEMENT_THEORY></metadata><data><meanElements><EPOCH>2025-07-15T23:12:53.368704</EPOCH><MEAN_MOTION>15.28287883</MEAN_MOTION><ECCENTRICITY>.0011053</ECCENTRICITY><INCLINATION>51.8661</INCLINATION><RA_OF_ASC_NODE>82.1078</RA_OF_ASC_NODE><ARG_OF_PERICENTER>54.8215</ARG_OF_PERICENTER><MEAN_ANOMALY>305.3801</MEAN_ANOMALY></meanElements><tleParameters><EPHEMERIS_TYPE>0</EPHEMERIS_TYPE><CLASSIFICATION_TYPE>U</CLASSIFICATION_TYPE><NORAD_CAT_ID>63725</NORAD_CAT_ID><ELEMENT_SET_NO>999</ELEMENT_SET_NO><REV_AT_EPOCH>1260</REV_AT_EPOCH><BSTAR>-.84689E-2</BSTAR><MEAN_MOTION_DOT>-.230423E-2</MEAN_MOTION_DOT><MEAN_MOTION_DDOT>0</MEAN_MOTION_DDOT></tleParameters></data></segment></body></omm>
<omm id="CCSDS_OMM_VERS" version="2.0">
<header><CREATION_DATE/><ORIGINATOR/></header><body><segment><metadata><OBJECT_NAME>KUIPER-00010</OBJECT_NAME><OBJECT_ID>2025-088C</OBJECT_ID><CENTER_NAME>EARTH</CENTER_NAME><REF_FRAME>TEME</REF_FRAME><TIME_SYSTEM>UTC</TIME_SYSTEM><MEAN_ELEMENT_THEORY>SGP4</MEAN_ELEMENT_THEORY></metadata><data><meanElements><EPOCH>2025-07-15T22:46:34.265280</EPOCH><MEAN_MOTION>15.35733260</MEAN_MOTION><ECCENTRICITY>.0009938</ECCENTRICITY><INCLINATION>51.8642</INCLINATION><RA_OF_ASC_NODE>82.0119</RA_OF_ASC_NODE><ARG_OF_PERICENTER>39.4823</ARG_OF_PERICENTER><MEAN_ANOMALY>320.6885</MEAN_ANOMALY></meanElements><tleParameters><EPHEMERIS_TYPE>0</EPHEMERIS_TYPE><CLASSIFICATION_TYPE>U</CLASSIFICATION_TYPE><NORAD_CAT_ID>63726</NORAD_CAT_ID><ELEMENT_SET_NO>999</ELEMENT_SET_NO><REV_AT_EPOCH>1222</REV_AT_EPOCH><BSTAR>.30312E-3</BSTAR><MEAN_MOTION_DOT>.10339E-3</MEAN_MOTION_DOT><MEAN_MOTION_DDOT>0</MEAN_MOTION_DDOT></tleParameters></data></segment></body></omm>
<omm id="CCSDS_OMM_VERS" version="2.0">
<header><CREATION_DATE/><ORIGINATOR/></header><body><segment><metadata><OBJECT_NAME>KUIPER-00011</OBJECT_NAME><OBJECT_ID>2025-088D</OBJECT_ID><CENTER_NAME>EARTH</CENTER_NAME><REF_FRAME>TEME</REF_FRAME><TIME_SYSTEM>UTC</TIME_SYSTEM><MEAN_ELEMENT_THEORY>SGP4</MEAN_ELEMENT_THEORY></metadata><data><meanElements><EPOCH>2025-07-15T21:47:00.638592</EPOCH><MEAN_MOTION>15.35324332</MEAN_MOTION><ECCENTRICITY>.0011774</ECCENTRICITY><INCLINATION>51.8572</INCLINATION><RA_OF_ASC_NODE>82.4295</RA_OF_ASC_NODE><ARG_OF_PERICENTER>46.6988</ARG_OF_PERICENTER><MEAN_ANOMALY>313.4978</MEAN_ANOMALY></meanElements><tleParameters><EPHEMERIS_TYPE>0</EPHEMERIS_TYPE><CLASSIFICATION_TYPE>U</CLASSIFICATION_TYPE><NORAD_CAT_ID>63727</NORAD_CAT_ID><ELEMENT_SET_NO>999</ELEMENT_SET_NO><REV_AT_EPOCH>1235</REV_AT_EPOCH><BSTAR>.27026E-3</BSTAR><MEAN_MOTION_DOT>.9056E-4</MEAN_MOTION_DOT><MEAN_MOTION_DDOT>0</MEAN_MOTION_DDOT></tleParameters></data></segment></body></omm>
<omm id="CCSDS_OMM_VERS" version="2.0">
<header><CREATION_DATE/><ORIGINATOR/></header><body><segment><metadata><OBJECT_NAME>KUIPER-00012</OBJECT_NAME><OBJECT_ID>2025-088E</OBJECT_ID><CENTER_NAME>EARTH</CENTER_NAME><REF_FRAME>TEME</REF_FRAME><TIME_SYSTEM>UTC</TIME_SYSTEM><MEAN_ELEMENT_THEORY>SGP4</MEAN_ELEMENT_THEORY></metadata><data><meanElements><EPOCH>2025-07-15T23:18:55.274112</EPOCH><MEAN_MOTION>15.35365299</MEAN_MOTION><ECCENTRICITY>.0011726</ECCENTRICITY><INCLINATION>51.8561</INCLINATION><RA_OF_ASC_NODE>82.0975</RA_OF_ASC_NODE><ARG_OF_PERICENTER>48.0305</ARG_OF_PERICENTER><MEAN_ANOMALY>312.1678</MEAN_ANOMALY></meanElements><tleParameters><EPHEMERIS_TYPE>0</EPHEMERIS_TYPE><CLASSIFICATION_TYPE>U</CLASSIFICATION_TYPE><NORAD_CAT_ID>63728</NORAD_CAT_ID><ELEMENT_SET_NO>999</ELEMENT_SET_NO><REV_AT_EPOCH>1231</REV_AT_EPOCH><BSTAR>.28045E-3</BSTAR><MEAN_MOTION_DOT>.9426E-4</MEAN_MOTION_DOT><MEAN_MOTION_DDOT>0</MEAN_MOTION_DDOT></tleParameters></data></segment></body></omm>
<omm id="CCSDS_OMM_VERS" version="2.0">
<header><CREATION_DATE/><ORIGINATOR/></header><body><segment><metadata><OBJECT_NAME>KUIPER-00013</OBJECT_NAME><OBJECT_ID>2025-088F</OBJECT_ID><CENTER_NAME>EARTH</CENTER_NAME><REF_FRAME>TEME</REF_FRAME><TIME_SYSTEM>UTC</TIME_SYSTEM><MEAN_ELEMENT_THEORY>SGP4</MEAN_ELEMENT_THEORY></metadata><data><meanElements><EPOCH>2025-07-15T22:40:57.086688</EPOCH><MEAN_MOTION>15.26921755</MEAN_MOTION><ECCENTRICITY>.0008405</ECCENTRICITY><INCLINATION>51.8693</INCLINATION><RA_OF_ASC_NODE>82.6884</RA_OF_ASC_NODE><ARG_OF_PERICENTER>34.8904</ARG_OF_PERICENTER><MEAN_ANOMALY>325.2628</MEAN_ANOMALY></meanElements><tleParameters><EPHEMERIS_TYPE>0</EPHEMERIS_TYPE><CLASSIFICATION_TYPE>U</CLASSIFICATION_TYPE><NORAD_CAT_ID>63729</NORAD_CAT_ID><ELEMENT_SET_NO>999</ELEMENT_SET_NO><REV_AT_EPOCH>1240</REV_AT_EPOCH><BSTAR>-.10488E-1</BSTAR><MEAN_MOTION_DOT>-.271875E-2</MEAN_MOTION_DOT><MEAN_MOTION_DDOT>0</MEAN_MOTION_DDOT></tleParameters></data></segment></body></omm>
<omm id="CCSDS_OMM_VERS" version="2.0">
<header><CREATION_DATE/><ORIGINATOR/></header><body><segment><metadata><OBJECT_NAME>KUIPER-00014</OBJECT_NAME><OBJECT_ID>2025-088G</OBJECT_ID><CENTER_NAME>EARTH</CENTER_NAME><REF_FRAME>TEME</REF_FRAME><TIME_SYSTEM>UTC</TIME_SYSTEM><MEAN_ELEMENT_THEORY>SGP4</MEAN_ELEMENT_THEORY></metadata><data><meanElements><EPOCH>2025-07-15T22:00:01.999584</EPOCH><MEAN_MOTION>15.25229399</MEAN_MOTION><ECCENTRICITY>.0011507</ECCENTRICITY><INCLINATION>51.8674</INCLINATION><RA_OF_ASC_NODE>83.6486</RA_OF_ASC_NODE><ARG_OF_PERICENTER>38.3780</ARG_OF_PERICENTER><MEAN_ANOMALY>136.1613</MEAN_ANOMALY></meanElements><tleParameters><EPHEMERIS_TYPE>0</EPHEMERIS_TYPE><CLASSIFICATION_TYPE>U</CLASSIFICATION_TYPE><NORAD_CAT_ID>63730</NORAD_CAT_ID><ELEMENT_SET_NO>999</ELEMENT_SET_NO><REV_AT_EPOCH>452</REV_AT_EPOCH><BSTAR>-.49874E-3</BSTAR><MEAN_MOTION_DOT>-.13056E-3</MEAN_MOTION_DOT><MEAN_MOTION_DDOT>0</MEAN_MOTION_DDOT></tleParameters></data></segment></body></omm>
<omm id="CCSDS_OMM_VERS" version="2.0">
<header><CREATION_DATE/><ORIGINATOR/></header><body><segment><metadata><OBJECT_NAME>KUIPER-00015</OBJECT_NAME><OBJECT_ID>2025-088H</OBJECT_ID><CENTER_NAME>EARTH</CENTER_NAME><REF_FRAME>TEME</REF_FRAME><TIME_SYSTEM>UTC</TIME_SYSTEM><MEAN_ELEMENT_THEORY>SGP4</MEAN_ELEMENT_THEORY></metadata><data><meanElements><EPOCH>2025-07-15T22:53:18.945600</EPOCH><MEAN_MOTION>15.05200905</MEAN_MOTION><ECCENTRICITY>.0011032</ECCENTRICITY><INCLINATION>51.8802</INCLINATION><RA_OF_ASC_NODE>90.0441</RA_OF_ASC_NODE><ARG_OF_PERICENTER>28.3172</ARG_OF_PERICENTER><MEAN_ANOMALY>331.8399</MEAN_ANOMALY></meanElements><tleParameters><EPHEMERIS_TYPE>0</EPHEMERIS_TYPE><CLASSIFICATION_TYPE>U</CLASSIFICATION_TYPE><NORAD_CAT_ID>63731</NORAD_CAT_ID><ELEMENT_SET_NO>999</ELEMENT_SET_NO><REV_AT_EPOCH>1257</REV_AT_EPOCH><BSTAR>-.85472E-2</BSTAR><MEAN_MOTION_DOT>-.12173E-2</MEAN_MOTION_DOT><MEAN_MOTION_DDOT>0</MEAN_MOTION_DDOT></tleParameters></data></segment></body></omm>

</ndm>
